[
  {
    "OBJECT_NAME": "STARLINK-3279",
    "OBJECT_ID": "21125AF",
    "EPOCH": "2025-11-11T07:20:34.868832",
    "MEAN_MOTION": 15.08845178,
    "ECCENTRICITY": 0.0001677,
    "INCLINATION": 53.2127,
    "RA_OF_ASC_NODE": 60.6035,
    "ARG_OF_PERICENTER": 88.5919,
    "MEAN_ANOMALY": 271.5266,
    "EPHEMERIS_TYPE": 0,
    "CLASSIFICATION_TYPE": "U",
    "NORAD_CAT_ID": 50185,
    "ELEMENT_SET_NO": 999,
    "REV_AT_EPOCH": 21873,
    "BSTAR": 0.00017522,
    "MEAN_MOTION_DOT": 2.502e-05,
    "MEAN_MOTION_DDOT": 0.0,
    "TLE_LINE1": "1 50185U 21125AF  25315.30595913  .00002502  00000+0  17522-3 0  9999",
    "TLE_LINE2": "2 50185  53.2127  60.6035 0001677  88.5919 271.5266 15.08845178218739",
    "COMMENT": "Grouped by shell and plane from TLE"
  },
  {
    "OBJECT_NAME": "STARLINK-3276",
    "OBJECT_ID": "21125AK",
    "EPOCH": "2025-11-11T06:50:09.930624",
    "MEAN_MOTION": 15.08837263,
    "ECCENTRICITY": 0.0001608,
    "INCLINATION": 53.2192,
    "RA_OF_ASC_NODE": 60.6704,
    "ARG_OF_PERICENTER": 96.6832,
    "MEAN_ANOMALY": 263.4343,
    "EPHEMERIS_TYPE": 0,
    "CLASSIFICATION_TYPE": "U",
    "NORAD_CAT_ID": 50189,
    "ELEMENT_SET_NO": 999,
    "REV_AT_EPOCH": 21876,
    "BSTAR": 0.00018675,
    "MEAN_MOTION_DOT": 2.685e-05,
    "MEAN_MOTION_DDOT": 0.0,
    "TLE_LINE1": "1 50189U 21125AK  25315.28483716  .00002685  00000+0  18675-3 0  9999",
    "TLE_LINE2": "2 50189  53.2192  60.6704 0001608  96.6832 263.4343 15.08837263218761",
    "COMMENT": "Grouped by shell and plane from TLE"
  },
  {
    "OBJECT_NAME": "STARLINK-3891",
    "OBJECT_ID": "22052BE",
    "EPOCH": "2025-11-11T06:59:23.831520",
    "MEAN_MOTION": 15.08843945,
    "ECCENTRICITY": 0.0001795,
    "INCLINATION": 53.2185,
    "RA_OF_ASC_NODE": 60.7344,
    "ARG_OF_PERICENTER": 97.3529,
    "MEAN_ANOMALY": 262.7667,
    "EPHEMERIS_TYPE": 0,
    "CLASSIFICATION_TYPE": "U",
    "NORAD_CAT_ID": 52650,
    "ELEMENT_SET_NO": 999,
    "REV_AT_EPOCH": 19340,
    "BSTAR": 0.00014206,
    "MEAN_MOTION_DOT": 1.974e-05,
    "MEAN_MOTION_DDOT": 0.0,
    "TLE_LINE1": "1 52650U 22052BE  25315.29124805  .00001974  00000+0  14206-3 0  9992",
    "TLE_LINE2": "2 52650  53.2185  60.7344 0001795  97.3529 262.7667 15.08843945193405",
    "COMMENT": "Grouped by shell and plane from TLE"
  },
  {
    "OBJECT_NAME": "STARLINK-4685",
    "OBJECT_ID": "22107K",
    "EPOCH": "2025-11-11T06:54:01.804896",
    "MEAN_MOTION": 15.08836876,
    "ECCENTRICITY": 0.0001584,
    "INCLINATION": 53.2181,
    "RA_OF_ASC_NODE": 60.34,
    "ARG_OF_PERICENTER": 81.9571,
    "MEAN_ANOMALY": 278.1601,
    "EPHEMERIS_TYPE": 0,
    "CLASSIFICATION_TYPE": "U",
    "NORAD_CAT_ID": 53709,
    "ELEMENT_SET_NO": 999,
    "REV_AT_EPOCH": 17660,
    "BSTAR": 6.2377e-05,
    "MEAN_MOTION_DOT": 7.05e-06,
    "MEAN_MOTION_DDOT": 0.0,
    "TLE_LINE1": "1 53709U 22107K   25315.28752089  .00000705  00000+0  62377-4 0  9993",
    "TLE_LINE2": "2 53709  53.2181  60.3400 0001584  81.9571 278.1601 15.08836876176605",
    "COMMENT": "Grouped by shell and plane from TLE"
  },
  {
    "OBJECT_NAME": "STARLINK-4627",
    "OBJECT_ID": "22107M",
    "EPOCH": "2025-11-11T07:09:56.788416",
    "MEAN_MOTION": 15.08846615,
    "ECCENTRICITY": 0.0001198,
    "INCLINATION": 53.2218,
    "RA_OF_ASC_NODE": 60.4044,
    "ARG_OF_PERICENTER": 83.244,
    "MEAN_ANOMALY": 276.8689,
    "EPHEMERIS_TYPE": 0,
    "CLASSIFICATION_TYPE": "U",
    "NORAD_CAT_ID": 53711,
    "ELEMENT_SET_NO": 999,
    "REV_AT_EPOCH": 17660,
    "BSTAR": 0.00011009,
    "MEAN_MOTION_DOT": 1.465e-05,
    "MEAN_MOTION_DDOT": 0.0,
    "TLE_LINE1": "1 53711U 22107M   25315.29857394  .00001465  00000+0  11009-3 0  9991",
    "TLE_LINE2": "2 53711  53.2218  60.4044 0001198  83.2440 276.8689 15.08846615176608",
    "COMMENT": "Grouped by shell and plane from TLE"
  },
  {
    "OBJECT_NAME": "STARLINK-4683",
    "OBJECT_ID": "22107N",
    "EPOCH": "2025-11-11T06:32:48.560928",
    "MEAN_MOTION": 15.08840889,
    "ECCENTRICITY": 0.0001278,
    "INCLINATION": 53.2197,
    "RA_OF_ASC_NODE": 60.2598,
    "ARG_OF_PERICENTER": 90.6551,
    "MEAN_ANOMALY": 269.4587,
    "EPHEMERIS_TYPE": 0,
    "CLASSIFICATION_TYPE": "U",
    "NORAD_CAT_ID": 53712,
    "ELEMENT_SET_NO": 999,
    "REV_AT_EPOCH": 17662,
    "BSTAR": 5.8978e-05,
    "MEAN_MOTION_DOT": 6.51e-06,
    "MEAN_MOTION_DDOT": 0.0,
    "TLE_LINE1": "1 53712U 22107N   25315.27278427  .00000651  00000+0  58978-4 0  9997",
    "TLE_LINE2": "2 53712  53.2197  60.2598 0001278  90.6551 269.4587 15.08840889176625",
    "COMMENT": "Grouped by shell and plane from TLE"
  },
  {
    "OBJECT_NAME": "STARLINK-4686",
    "OBJECT_ID": "22107R",
    "EPOCH": "2025-11-11T07:01:18.899904",
    "MEAN_MOTION": 15.08849464,
    "ECCENTRICITY": 0.0001442,
    "INCLINATION": 53.2165,
    "RA_OF_ASC_NODE": 65.3411,
    "ARG_OF_PERICENTER": 90.8551,
    "MEAN_ANOMALY": 269.2607,
    "EPHEMERIS_TYPE": 0,
    "CLASSIFICATION_TYPE": "U",
    "NORAD_CAT_ID": 53715,
    "ELEMENT_SET_NO": 999,
    "REV_AT_EPOCH": 17654,
    "BSTAR": 0.00025252,
    "MEAN_MOTION_DOT": 3.734e-05,
    "MEAN_MOTION_DDOT": 0.0,
    "TLE_LINE1": "1 53715U 22107R   25315.29257986  .00003734  00000+0  25252-3 0  9992",
    "TLE_LINE2": "2 53715  53.2165  65.3411 0001442  90.8551 269.2607 15.08849464176548",
    "COMMENT": "Grouped by shell and plane from TLE"
  },
  {
    "OBJECT_NAME": "STARLINK-4699",
    "OBJECT_ID": "22107S",
    "EPOCH": "2025-11-11T06:56:00.990240",
    "MEAN_MOTION": 15.08843304,
    "ECCENTRICITY": 0.0001991,
    "INCLINATION": 53.2234,
    "RA_OF_ASC_NODE": 65.3204,
    "ARG_OF_PERICENTER": 98.6073,
    "MEAN_ANOMALY": 261.5144,
    "EPHEMERIS_TYPE": 0,
    "CLASSIFICATION_TYPE": "U",
    "NORAD_CAT_ID": 53716,
    "ELEMENT_SET_NO": 999,
    "REV_AT_EPOCH": 17653,
    "BSTAR": 2.3069000000000002e-05,
    "MEAN_MOTION_DOT": 7.9e-07,
    "MEAN_MOTION_DDOT": 0.0,
    "TLE_LINE1": "1 53716U 22107S   25315.28890035  .00000079  00000+0  23069-4 0  9994",
    "TLE_LINE2": "2 53716  53.2234  65.3204 0001991  98.6073 261.5144 15.08843304176537",
    "COMMENT": "Grouped by shell and plane from TLE"
  },
  {
    "OBJECT_NAME": "STARLINK-4695",
    "OBJECT_ID": "22107U",
    "EPOCH": "2025-11-11T06:41:35.667456",
    "MEAN_MOTION": 15.088431,
    "ECCENTRICITY": 0.0001539,
    "INCLINATION": 53.2198,
    "RA_OF_ASC_NODE": 65.953,
    "ARG_OF_PERICENTER": 99.1331,
    "MEAN_ANOMALY": 260.9835,
    "EPHEMERIS_TYPE": 0,
    "CLASSIFICATION_TYPE": "U",
    "NORAD_CAT_ID": 53718,
    "ELEMENT_SET_NO": 999,
    "REV_AT_EPOCH": 17652,
    "BSTAR": 8.9526e-05,
    "MEAN_MOTION_DOT": 1.137e-05,
    "MEAN_MOTION_DDOT": 0.0,
    "TLE_LINE1": "1 53718U 22107U   25315.27888504  .00001137  00000+0  89526-4 0  9999",
    "TLE_LINE2": "2 53718  53.2198  65.9530 0001539  99.1331 260.9835 15.08843100176520",
    "COMMENT": "Grouped by shell and plane from TLE"
  },
  {
    "OBJECT_NAME": "STARLINK-4642",
    "OBJECT_ID": "22107W",
    "EPOCH": "2025-11-11T07:06:37.670976",
    "MEAN_MOTION": 15.08844317,
    "ECCENTRICITY": 0.0001206,
    "INCLINATION": 53.2181,
    "RA_OF_ASC_NODE": 65.3633,
    "ARG_OF_PERICENTER": 91.7192,
    "MEAN_ANOMALY": 268.3939,
    "EPHEMERIS_TYPE": 0,
    "CLASSIFICATION_TYPE": "U",
    "NORAD_CAT_ID": 53720,
    "ELEMENT_SET_NO": 999,
    "REV_AT_EPOCH": 17654,
    "BSTAR": 0.0,
    "MEAN_MOTION_DOT": -2.99e-06,
    "MEAN_MOTION_DDOT": 0.0,
    "TLE_LINE1": "1 53720U 22107W   25315.29626934 -.00000299  00000+0 -70559-6 0  9999",
    "TLE_LINE2": "2 53720  53.2181  65.3633 0001206  91.7192 268.3939 15.08844317176547",
    "COMMENT": "Grouped by shell and plane from TLE"
  },
  {
    "OBJECT_NAME": "STARLINK-4707",
    "OBJECT_ID": "22107X",
    "EPOCH": "2025-11-11T07:17:14.105472",
    "MEAN_MOTION": 15.08844239,
    "ECCENTRICITY": 0.0001531,
    "INCLINATION": 53.2174,
    "RA_OF_ASC_NODE": 65.4104,
    "ARG_OF_PERICENTER": 84.8543,
    "MEAN_ANOMALY": 275.2624,
    "EPHEMERIS_TYPE": 0,
    "CLASSIFICATION_TYPE": "U",
    "NORAD_CAT_ID": 53721,
    "ELEMENT_SET_NO": 999,
    "REV_AT_EPOCH": 17654,
    "BSTAR": 5.2789e-05,
    "MEAN_MOTION_DOT": 5.52e-06,
    "MEAN_MOTION_DDOT": 0.0,
    "TLE_LINE1": "1 53721U 22107X   25315.30363548  .00000552  00000+0  52789-4 0  9994",
    "TLE_LINE2": "2 53721  53.2174  65.4104 0001531  84.8543 275.2624 15.08844239176549",
    "COMMENT": "Grouped by shell and plane from TLE"
  },
  {
    "OBJECT_NAME": "STARLINK-4700",
    "OBJECT_ID": "22107Y",
    "EPOCH": "2025-11-11T07:27:50.772384",
    "MEAN_MOTION": 15.08840895,
    "ECCENTRICITY": 0.0001494,
    "INCLINATION": 53.2165,
    "RA_OF_ASC_NODE": 65.4528,
    "ARG_OF_PERICENTER": 87.4135,
    "MEAN_ANOMALY": 272.7029,
    "EPHEMERIS_TYPE": 0,
    "CLASSIFICATION_TYPE": "U",
    "NORAD_CAT_ID": 53722,
    "ELEMENT_SET_NO": 999,
    "REV_AT_EPOCH": 17653,
    "BSTAR": 6.4609e-05,
    "MEAN_MOTION_DOT": 7.4e-06,
    "MEAN_MOTION_DDOT": 0.0,
    "TLE_LINE1": "1 53722U 22107Y   25315.31100431  .00000740  00000+0  64609-4 0  9999",
    "TLE_LINE2": "2 53722  53.2165  65.4528 0001494  87.4135 272.7029 15.08840895176538",
    "COMMENT": "Grouped by shell and plane from TLE"
  },
  {
    "OBJECT_NAME": "STARLINK-4705",
    "OBJECT_ID": "22107Z",
    "EPOCH": "2025-11-11T06:50:42.533664",
    "MEAN_MOTION": 15.08845143,
    "ECCENTRICITY": 0.0001276,
    "INCLINATION": 53.2181,
    "RA_OF_ASC_NODE": 65.3026,
    "ARG_OF_PERICENTER": 99.794,
    "MEAN_ANOMALY": 260.3196,
    "EPHEMERIS_TYPE": 0,
    "CLASSIFICATION_TYPE": "U",
    "NORAD_CAT_ID": 53723,
    "ELEMENT_SET_NO": 999,
    "REV_AT_EPOCH": 17668,
    "BSTAR": 9.262e-06,
    "MEAN_MOTION_DOT": -1.4e-06,
    "MEAN_MOTION_DDOT": 0.0,
    "TLE_LINE1": "1 53723U 22107Z   25315.28521451 -.00000140  00000+0  92620-5 0  9995",
    "TLE_LINE2": "2 53723  53.2181  65.3026 0001276  99.7940 260.3196 15.08845143176682",
    "COMMENT": "Grouped by shell and plane from TLE"
  }
]